ONEWEB-0584             
1 54651U 22166K   24097.53694174  .00000036  00000+0  55391-4 0  9994
2 54651  87.9295  43.5271 0002194  72.8101 287.3273 13.21824081 66082
ONEWEB-0585             
1 54652U 22166L   24097.56217900  .00000028  00000+0  37504-4 0  9993
2 54652  87.9299  43.5291 0001756  75.7030 284.4299 13.21826876 65624
ONEWEB-0586             
1 54653U 22166M   24097.57478964 -.00000059  00000+0 -17406-3 0  9998
2 54653  87.9291  43.5462 0002086  74.8361 285.3003 13.21823808 65626
ONEWEB-0587             
1 54654U 22166N   24097.58426261 -.00000029  00000+0 -10256-3 0  9996
2 54654  87.9289  43.5007 0001740  87.6360 272.4973 13.21826054 65782
ONEWEB-0589             
1 54655U 22166P   24097.57164568  .00000094  00000+0  19578-3 0  9991
2 54655  87.9293  43.5314 0002854  69.3172 290.8267 13.21826850 65643
ONEWEB-0590             
1 54656U 22166Q   24097.59529316 -.00000101  00000+0 -27649-3 0  9999
2 54656  87.9298  43.5311 0002030  87.3933 272.7433 13.21824256 65638
ONEWEB-0591             
1 54657U 22166R   24097.60791109 -.00000097  00000+0 -26711-3 0  9996
2 54657  87.9292  43.5279 0002080  78.2917 281.8451 13.21825410 65669
ONEWEB-0592             
1 54658U 22166S   24097.61107397 -.00000088  00000+0 -24422-3 0  9995
2 54658  87.9288  43.4954 0002248  78.5177 281.6209 13.21825496 65541
